{
  "type": "FeatureCollection",
  "features": [
    {
      "type": "Feature",
      "properties": {
        "norad_id": 43564,
        "name": "GSAT0221 (GALILEO 25)",
        "group": "galileo",
        "lat": -30.36546758349276,
        "lon": -35.693855210863816,
        "alt_km": 23209.892849721575,
        "timestamp": "2025-12-24T18:55:56.331432+00:00",
        "meta_object_name": "GSAT0221 (GALILEO 25)",
        "meta_object_id": "2018-060A",
        "meta_epoch": "2025-12-23T02:08:34.035648",
        "meta_mean_motion": 1.70475773,
        "meta_eccentricity": 0.00067192,
        "meta_inclination": 57.2255,
        "meta_ra_of_asc_node": 346.5383,
        "meta_arg_of_pericenter": 286.3445,
        "meta_mean_anomaly": 73.589,
        "meta_ephemeris_type": 0,
        "meta_classification_type": "U",
        "meta_norad_cat_id": 43564,
        "meta_element_set_no": 999,
        "meta_rev_at_epoch": 4616,
        "meta_bstar": 0,
        "meta_mean_motion_dot": -6.3e-07,
        "meta_mean_motion_ddot": 0,
        "tle_line1": "1 43564U 18060A   25357.08928282 -.00000063  00000+0  00000+0 0  9996",
        "tle_line2": "2 43564  57.2255 346.5383 0006719 286.3445  73.5890  1.70475773 46167"
      },
      "geometry": {
        "type": "Point",
        "coordinates": [
          -35.693855210863816,
          -30.36546758349276
        ]
      }
    },
    {
      "type": "Feature",
      "properties": {
        "norad_id": 43565,
        "name": "GSAT0222 (GALILEO 26)",
        "group": "galileo",
        "lat": -7.008288344186786,
        "lon": 171.02536876256934,
        "alt_km": 23219.702766898536,
        "timestamp": "2025-12-24T18:55:56.331443+00:00",
        "meta_object_name": "GSAT0222 (GALILEO 26)",
        "meta_object_id": "2018-060B",
        "meta_epoch": "2025-12-22T03:15:04.306464",
        "meta_mean_motion": 1.70475514,
        "meta_eccentricity": 0.000605,
        "meta_inclination": 57.229,
        "meta_ra_of_asc_node": 346.567,
        "meta_arg_of_pericenter": 266.9186,
        "meta_mean_anomaly": 93.0201,
        "meta_ephemeris_type": 0,
        "meta_classification_type": "U",
        "meta_norad_cat_id": 43565,
        "meta_element_set_no": 999,
        "meta_rev_at_epoch": 4619,
        "meta_bstar": 0,
        "meta_mean_motion_dot": -6.5e-07,
        "meta_mean_motion_ddot": 0,
        "tle_line1": "1 43565U 18060B   25356.13546651 -.00000065  00000+0  00000+0 0  9990",
        "tle_line2": "2 43565  57.2290 346.5670 0006050 266.9186  93.0201  1.70475514 46199"
      },
      "geometry": {
        "type": "Point",
        "coordinates": [
          171.02536876256934,
          -7.008288344186786
        ]
      }
    },
    {
      "type": "Feature",
      "properties": {
        "norad_id": 43566,
        "name": "GSAT0219 (GALILEO 23)",
        "group": "galileo",
        "lat": 41.98856535354556,
        "lon": 21.918553826583885,
        "alt_km": 23226.095099072005,
        "timestamp": "2025-12-24T18:55:56.331454+00:00",
        "meta_object_name": "GSAT0219 (GALILEO 23)",
        "meta_object_id": "2018-060C",
        "meta_epoch": "2025-12-22T08:33:30.157056",
        "meta_mean_motion": 1.70475755,
        "meta_eccentricity": 0.00058833,
        "meta_inclination": 57.2283,
        "meta_ra_of_asc_node": 346.5626,
        "meta_arg_of_pericenter": 291.1394,
        "meta_mean_anomaly": 68.8055,
        "meta_ephemeris_type": 0,
        "meta_classification_type": "U",
        "meta_norad_cat_id": 43566,
        "meta_element_set_no": 999,
        "meta_rev_at_epoch": 4617,
        "meta_bstar": 0,
        "meta_mean_motion_dot": -6.5e-07,
        "meta_mean_motion_ddot": 0,
        "tle_line1": "1 43566U 18060C   25356.35659904 -.00000065  00000+0  00000+0 0  9991",
        "tle_line2": "2 43566  57.2283 346.5626 0005883 291.1394  68.8055  1.70475755 46179"
      },
      "geometry": {
        "type": "Point",
        "coordinates": [
          21.918553826583885,
          41.98856535354556
        ]
      }
    },
    {
      "type": "Feature",
      "properties": {
        "norad_id": 43567,
        "name": "GSAT0220 (GALILEO 24)",
        "group": "galileo",
        "lat": -56.54107050319382,
        "lon": -90.60167350870879,
        "alt_km": 23210.21573282209,
        "timestamp": "2025-12-24T18:55:56.331466+00:00",
        "meta_object_name": "GSAT0220 (GALILEO 24)",
        "meta_object_id": "2018-060D",
        "meta_epoch": "2025-12-23T03:56:18.956256",
        "meta_mean_motion": 1.70475727,
        "meta_eccentricity": 0.00061193,
        "meta_inclination": 57.2279,
        "meta_ra_of_asc_node": 346.5416,
        "meta_arg_of_pericenter": 288.3355,
        "meta_mean_anomaly": 71.6054,
        "meta_ephemeris_type": 0,
        "meta_classification_type": "U",
        "meta_norad_cat_id": 43567,
        "meta_element_set_no": 999,
        "meta_rev_at_epoch": 4617,
        "meta_bstar": 0,
        "meta_mean_motion_dot": -6.3e-07,
        "meta_mean_motion_ddot": 0,
        "tle_line1": "1 43567U 18060D   25357.16410829 -.00000063  00000+0  00000+0 0  9991",
        "tle_line2": "2 43567  57.2279 346.5416 0006119 288.3355  71.6054  1.70475727 46170"
      },
      "geometry": {
        "type": "Point",
        "coordinates": [
          -90.60167350870879,
          -56.54107050319382
        ]
      }
    },
    {
      "type": "Feature",
      "properties": {
        "norad_id": 49809,
        "name": "GSAT0223 (GALILEO 27)",
        "group": "galileo",
        "lat": 6.612552178462579,
        "lon": -9.339406945435877,
        "alt_km": 23226.28748604744,
        "timestamp": "2025-12-24T18:55:56.331477+00:00",
        "meta_object_name": "GSAT0223 (GALILEO 27)",
        "meta_object_id": "2021-116A",
        "meta_epoch": "2025-12-22T17:26:14.878176",
        "meta_mean_motion": 1.70475871,
        "meta_eccentricity": 0.000441,
        "meta_inclination": 57.2174,
        "meta_ra_of_asc_node": 346.4438,
        "meta_arg_of_pericenter": 255.815,
        "meta_mean_anomaly": 286.3499,
        "meta_ephemeris_type": 0,
        "meta_classification_type": "U",
        "meta_norad_cat_id": 49809,
        "meta_element_set_no": 999,
        "meta_rev_at_epoch": 2517,
        "meta_bstar": 0,
        "meta_mean_motion_dot": -6.4e-07,
        "meta_mean_motion_ddot": 0,
        "tle_line1": "1 49809U 21116A   25356.72656109 -.00000064  00000+0  00000+0 0  9997",
        "tle_line2": "2 49809  57.2174 346.4438 0004410 255.8150 286.3499  1.70475871 25171"
      },
      "geometry": {
        "type": "Point",
        "coordinates": [
          -9.339406945435877,
          6.612552178462579
        ]
      }
    },
    {
      "type": "Feature",
      "properties": {
        "norad_id": 49810,
        "name": "GSAT0224 (GALILEO 28)",
        "group": "galileo",
        "lat": 46.451888932205904,
        "lon": 123.69534857374121,
        "alt_km": 23225.045917502077,
        "timestamp": "2025-12-24T18:55:56.331489+00:00",
        "meta_object_name": "GSAT0224 (GALILEO 28)",
        "meta_object_id": "2021-116B",
        "meta_epoch": "2025-12-23T03:00:59.528736",
        "meta_mean_motion": 1.70475912,
        "meta_eccentricity": 0.00037519,
        "meta_inclination": 57.2181,
        "meta_ra_of_asc_node": 346.4317,
        "meta_arg_of_pericenter": 260.8078,
        "meta_mean_anomaly": 278.9053,
        "meta_ephemeris_type": 0,
        "meta_classification_type": "U",
        "meta_norad_cat_id": 49810,
        "meta_element_set_no": 999,
        "meta_rev_at_epoch": 2520,
        "meta_bstar": 0,
        "meta_mean_motion_dot": -6.3e-07,
        "meta_mean_motion_ddot": 0,
        "tle_line1": "1 49810U 21116B   25357.12568899 -.00000063  00000+0  00000+0 0  9991",
        "tle_line2": "2 49810  57.2181 346.4317 0003751 260.8078 278.9053  1.70475912 25202"
      },
      "geometry": {
        "type": "Point",
        "coordinates": [
          123.69534857374121,
          46.451888932205904
        ]
      }
    },
    {
      "type": "Feature",
      "properties": {
        "norad_id": 59598,
        "name": "GSAT0225 (GALILEO 29)",
        "group": "galileo",
        "lat": 48.9753511022983,
        "lon": -127.5459225674986,
        "alt_km": 23214.64697361999,
        "timestamp": "2025-12-24T18:55:56.331500+00:00",
        "meta_object_name": "GSAT0225 (GALILEO 29)",
        "meta_object_id": "2024-079A",
        "meta_epoch": "2025-12-22T20:21:50.564160",
        "meta_mean_motion": 1.70474954,
        "meta_eccentricity": 0.0002219,
        "meta_inclination": 55.0069,
        "meta_ra_of_asc_node": 106.0132,
        "meta_arg_of_pericenter": 188.6953,
        "meta_mean_anomaly": 173.4251,
        "meta_ephemeris_type": 0,
        "meta_classification_type": "U",
        "meta_norad_cat_id": 59598,
        "meta_element_set_no": 999,
        "meta_rev_at_epoch": 1031,
        "meta_bstar": 0,
        "meta_mean_motion_dot": 8e-08,
        "meta_mean_motion_ddot": 0,
        "tle_line1": "1 59598U 24079A   25356.84850190  .00000008  00000+0  00000+0 0  9990",
        "tle_line2": "2 59598  55.0069 106.0132 0002219 188.6953 173.4251  1.70474954 10319"
      },
      "geometry": {
        "type": "Point",
        "coordinates": [
          -127.5459225674986,
          48.9753511022983
        ]
      }
    }
  ]
}